{
    "links": {
        "self": "http://www.neowsapp.com/rest/v1/neo/3463370?api_key=iIulBulltgU6a56xZRHN4H3l9WmuAYTsLGpBGhQ2"
    },
    "id": "3463370",
    "neo_reference_id": "3463370",
    "name": "(2009 MU)",
    "designation": "2009 MU",
    "nasa_jpl_url": "http://ssd.jpl.nasa.gov/sbdb.cgi?sstr=3463370",
    "absolute_magnitude_h": 24.6,
    "estimated_diameter": {
        "kilometers": {
            "estimated_diameter_min": 0.0319561887,
            "estimated_diameter_max": 0.0714562102
        },
        "meters": {
            "estimated_diameter_min": 31.9561886721,
            "estimated_diameter_max": 71.4562101727
        },
        "miles": {
            "estimated_diameter_min": 0.0198566489,
            "estimated_diameter_max": 0.0444008168
        },
        "feet": {
            "estimated_diameter_min": 104.8431420431,
            "estimated_diameter_max": 234.436392583
        }
    },
    "is_potentially_hazardous_asteroid": false,
    "close_approach_data": [
        {
            "close_approach_date": "2002-10-24",
            "close_approach_date_full": "2002-Oct-24 23:32",
            "epoch_date_close_approach": 1035502320000,
            "relative_velocity": {
                "kilometers_per_second": "24.2715589669",
                "kilometers_per_hour": "87377.6122808015",
                "miles_per_hour": "54293.0502530347"
            },
            "miss_distance": {
                "astronomical": "0.4085636827",
                "lunar": "158.9312725703",
                "kilometers": "61120256.691275849",
                "miles": "37978366.4277067562"
            },
            "orbiting_body": "Earth"
        },
        {
            "close_approach_date": "2009-06-24",
            "close_approach_date_full": "2009-Jun-24 16:48",
            "epoch_date_close_approach": 1245862080000,
            "relative_velocity": {
                "kilometers_per_second": "13.0110645986",
                "kilometers_per_hour": "46839.8325548272",
                "miles_per_hour": "29104.4504005258"
            },
            "miss_distance": {
                "astronomical": "0.0059375521",
                "lunar": "2.3097077669",
                "kilometers": "888245.147174027",
                "miles": "551929.9411224926"
            },
            "orbiting_body": "Earth"
        },
        {
            "close_approach_date": "2009-06-24",
            "close_approach_date_full": "2009-Jun-24 20:50",
            "epoch_date_close_approach": 1245876600000,
            "relative_velocity": {
                "kilometers_per_second": "13.8391721867",
                "kilometers_per_hour": "49821.0198719569",
                "miles_per_hour": "30956.8442643279"
            },
            "miss_distance": {
                "astronomical": "0.004101334",
                "lunar": "1.595418926",
                "kilometers": "613550.83055858",
                "miles": "381242.807645204"
            },
            "orbiting_body": "Moon"
        },
        {
            "close_approach_date": "2016-05-25",
            "close_approach_date_full": "2016-May-25 18:54",
            "epoch_date_close_approach": 1464202440000,
            "relative_velocity": {
                "kilometers_per_second": "24.4893385147",
                "kilometers_per_hour": "88161.6186528505",
                "miles_per_hour": "54780.2013234893"
            },
            "miss_distance": {
                "astronomical": "0.3904210207",
                "lunar": "151.8737770523",
                "kilometers": "58406153.099945909",
                "miles": "36291900.6585111842"
            },
            "orbiting_body": "Earth"
        },
        {
            "close_approach_date": "2099-06-11",
            "close_approach_date_full": "2099-Jun-11 19:29",
            "epoch_date_close_approach": 4084889340000,
            "relative_velocity": {
                "kilometers_per_second": "17.2297052279",
                "kilometers_per_hour": "62026.9388205642",
                "miles_per_hour": "38541.1276243667"
            },
            "miss_distance": {
                "astronomical": "0.1357545569",
                "lunar": "52.8085226341",
                "kilometers": "20308592.555033803",
                "miles": "12619174.2548123614"
            },
            "orbiting_body": "Earth"
        }
    ],
    "orbital_data": {
        "orbit_id": "9",
        "orbit_determination_date": "2017-04-06 09:00:25",
        "first_observation_date": "2009-06-19",
        "last_observation_date": "2009-06-24",
        "data_arc_in_days": 5,
        "observations_used": 108,
        "orbit_uncertainty": "7",
        "minimum_orbit_intersection": ".00579322",
        "jupiter_tisserand_invariant": "3.318",
        "epoch_osculation": "2459000.5",
        "eccentricity": ".6103727386956224",
        "semi_major_axis": "2.28574845944415",
        "inclination": "7.294245940637272",
        "ascending_node_longitude": "93.95806707947141",
        "orbital_period": "1262.237505580343",
        "perihelion_distance": ".8905899122839244",
        "perihelion_argument": "224.8429828899074",
        "aphelion_distance": "3.680907006604375",
        "perihelion_time": "2458835.263357354802",
        "mean_anomaly": "47.12678167879486",
        "mean_motion": ".2852078142254865",
        "equinox": "J2000",
        "orbit_class": {
            "orbit_class_type": "APO",
            "orbit_class_description": "Near-Earth asteroid orbits which cross the Earth’s orbit similar to that of 1862 Apollo",
            "orbit_class_range": "a (semi-major axis) > 1.0 AU; q (perihelion) < 1.017 AU"
        }
    },
    "is_sentry_object": false
}